[{"OBJECT_NAME":"STARLINK-34434","OBJECT_ID":"2025-129L","EPOCH":"2026-03-09T10:15:51.910560","MEAN_MOTION":14.98323947,"ECCENTRICITY":0.00031636,"INCLINATION":70.0009,"RA_OF_ASC_NODE":75.2956,"ARG_OF_PERICENTER":271.5115,"MEAN_ANOMALY":88.5682,"EPHEMERIS_TYPE":0,"CLASSIFICATION_TYPE":"U","NORAD_CAT_ID":64422,"ELEMENT_SET_NO":999,"REV_AT_EPOCH":4124,"BSTAR":-0.00026984256,"MEAN_MOTION_DOT":-3.311e-5,"MEAN_MOTION_DDOT":0},{"OBJECT_NAME":"SL-6 R\/B(2)","OBJECT_ID":"1986-075D","EPOCH":"2026-03-09T19:11:59.274240","MEAN_MOTION":6.54432621,"ECCENTRICITY":0.45340684,"INCLINATION":62.2263,"RA_OF_ASC_NODE":225.9777,"ARG_OF_PERICENTER":345.6632,"MEAN_ANOMALY":4.8637,"EPHEMERIS_TYPE":0,"CLASSIFICATION_TYPE":"U","NORAD_CAT_ID":16996,"ELEMENT_SET_NO":999,"REV_AT_EPOCH":60520,"BSTAR":0.0006857799,"MEAN_MOTION_DOT":0.00026455,"MEAN_MOTION_DDOT":0}]
